[{"OBJECT_NAME":"OBJECT D","OBJECT_ID":"2024-173D","EPOCH":"2026-03-09T23:30:29.956896","MEAN_MOTION":15.27005733,"ECCENTRICITY":0.00090093,"INCLINATION":97.3606,"RA_OF_ASC_NODE":149.3901,"ARG_OF_PERICENTER":241.6081,"MEAN_ANOMALY":118.425,"EPHEMERIS_TYPE":0,"CLASSIFICATION_TYPE":"U","NORAD_CAT_ID":61230,"ELEMENT_SET_NO":999,"REV_AT_EPOCH":8130,"BSTAR":0.00072064626,"MEAN_MOTION_DOT":0.00019078,"MEAN_MOTION_DDOT":0},{"OBJECT_NAME":"STARLINK-32873","OBJECT_ID":"2025-022D","EPOCH":"2026-03-09T09:50:43.859040","MEAN_MOTION":15.30199058,"ECCENTRICITY":0.00013557,"INCLINATION":53.1591,"RA_OF_ASC_NODE":131.1802,"ARG_OF_PERICENTER":93.2123,"MEAN_ANOMALY":266.9033,"EPHEMERIS_TYPE":0,"CLASSIFICATION_TYPE":"U","NORAD_CAT_ID":62857,"ELEMENT_SET_NO":999,"REV_AT_EPOCH":6185,"BSTAR":0.00036901474,"MEAN_MOTION_DOT":0.00010585,"MEAN_MOTION_DDOT":0}]
